STARLINK-30962          
1 58458U 23183X   26068.30330837 -.00001070  00000+0 -30200-4 0  9994
2 58458  43.0039  43.0767 0002305 272.6692  87.3895 15.26735702126683
FLOCK 4G-36             
1 62675U 25009BU  26068.70726311  .00013573  00000+0  51122-3 0  9993
2 62675  97.4053 151.0513 0003474 324.2456  35.8550 15.27209548 63701
